IRIDIUM 36              
1 24967U 97056C   24258.81600317  .00001381  00000+0  45926-3 0  9993
2 24967  86.3919 288.6580 0002238  97.3823 262.7629 14.37031158412666
IRIDIUM 39              
1 25042U 97069D   24258.90604120  .00002613  00000+0  69204-3 0  9992
2 25042  86.3952 329.1612 0019678 140.8435 219.4196 14.48337435409106
IRIDIUM 38              
1 25043U 97069E   24258.79502523  .00001915  00000+0  63320-3 0  9991
2 25043  86.4020 349.0208 0000416  56.6218 303.5019 14.37521898406381
IRIDIUM 42              
1 25077U 97077A   24258.81520617  .00001846  00000+0  63184-3 0  9995
2 25077  86.4027 354.8371 0001572  83.4894 276.6481 14.35800055401675
IRIDIUM 44              
1 25078U 97077B   24258.74493821  .00001880  00000+0  59553-3 0  9997
2 25078  86.4002 337.5406 0002016 145.5809 214.5521 14.39644951404063
IRIDIUM 45              
1 25104U 97082A   24258.83586367  .00027682  00000+0  14058-2 0  9999
2 25104  86.3723 180.0523 0144956 272.8204  85.6450 15.07969460410590
IRIDIUM 24              
1 25105U 97082B   24258.86076188  .00002198  00000+0  67162-3 0  9998
2 25105  86.3970 196.9241 0008983 268.1323  91.8848 14.41458343403544
IRIDIUM 51              
1 25262U 98018A   24258.88693705  .00033766  00000+0  13752-2 0  9994
2 25262  86.3992 189.5487 0130264 209.2134 150.1781 15.16781841404985
